NORAD_CAT_ID,OBJECT_NAME,OBJECT_TYPE,EPOCH,MEAN_MOTION,ECCENTRICITY,INCLINATION,RA_OF_ASC_NODE,ARG_OF_PERICENTER,MEAN_ANOMALY,BSTAR,MEAN_MOTION_DOT,MEAN_MOTION_DDOT,TLE_LINE0,TLE_LINE1,TLE_LINE2,SEMIMAJOR_AXIS,PERIOD,APOGEE,PERIGEE,DECAYED
53641.0,STARLINK-4588,PAYLOAD,2024-01-04 22:01:54,15.08839145,0.0001378,53.2148,191.8508,91.7108,268.4042,7.9723e-05,9.81e-06,0.0,0 STARLINK-4588,1 53641U 22104BF  24004.91799747  .00000981  00000-0  79723-4 0  9991,2 53641  53.2148 191.8508 0001378  91.7108 268.4042 15.08839145 76240,6917.883,95.438,540.701,538.795,0.0
53641.0,STARLINK-4588,PAYLOAD,2024-01-05 12:20:24,15.08826095,0.0001537,53.2153,189.1704,95.3982,264.7186,-7.5933e-05,-1.496e-05,0.0,0 STARLINK-4588,1 53641U 22104BF  24005.51416772 -.00001496  00000-0 -75933-4 0  9995,2 53641  53.2153 189.1704 0001537  95.3982 264.7186 15.08826095 75316,6917.923,95.438,540.851,538.725,0.0
53641.0,STARLINK-4588,PAYLOAD,2024-01-05 18:41:56,15.08827863,0.0001502,53.216,187.9823,97.5392,262.577,-3.6026e-05,-8.61e-06,0.0,0 STARLINK-4588,1 53641U 22104BF  24005.77913138 -.00000861  00000-0 -36026-4 0  9996,2 53641  53.2160 187.9823 0001502  97.5392 262.5770 15.08827863 76379,6917.917,95.438,540.822,538.743,0.0
53641.0,STARLINK-4588,PAYLOAD,2024-01-06 12:11:11,15.08834695,0.0001415,53.2151,184.7076,110.9558,249.1585,3.7696e-05,3.12e-06,0.0,0 STARLINK-4588,1 53641U 22104BF  24006.50776841  .00000312  00000-0  37696-4 0  9999,2 53641  53.2151 184.7076 0001415 110.9558 249.1585 15.08834695 75466,6917.897,95.438,540.74,538.783,0.0
53641.0,STARLINK-4588,PAYLOAD,2024-01-06 21:43:29,15.08836401,0.000151,53.2165,182.9276,97.6743,262.4421,0.00011754,1.583e-05,0.0,0 STARLINK-4588,1 53641U 22104BF  24006.90520773  .00001583  00000-0  11754-3 0  9991,2 53641  53.2165 182.9276 0001510  97.6743 262.4421 15.08836401 76540,6917.891,95.438,540.801,538.712,0.0
53641.0,STARLINK-4588,PAYLOAD,2024-01-07 12:01:57,15.08841572,0.0001387,53.2166,180.2527,92.0049,268.1102,0.00022134,3.237e-05,0.0,0 STARLINK-4588,1 53641U 22104BF  24007.50136479  .00003237  00000-0  22134-3 0  9996,2 53641  53.2166 180.2527 0001387  92.0049 268.1102 15.08841572 75612,6917.876,95.437,540.7,538.781,0.0
53641.0,STARLINK-4588,PAYLOAD,2024-01-07 16:48:07,15.08845686,0.0001386,53.2162,179.3606,83.0384,277.0766,0.00026568,3.944e-05,0.0,0 STARLINK-4588,1 53641U 22104BF  24007.70008387  .00003944  00000-0  26568-3 0  9994,2 53641  53.2162 179.3606 0001386  83.0384 277.0766 15.08845686 76667,6917.863,95.437,540.687,538.769,0.0
53641.0,STARLINK-4588,PAYLOAD,2024-01-08 16:38:53,15.08854597,0.0001418,53.215,174.9001,82.2428,277.8725,0.00014281,1.986e-05,0.0,0 STARLINK-4588,1 53641U 22104BF  24008.69367565  .00001986  00000-0  14281-3 0  9992,2 53641  53.2150 174.9001 0001418  82.2428 277.8725 15.08854597 75797,6917.836,95.437,540.682,538.72,0.0
53641.0,STARLINK-4588,PAYLOAD,2024-01-09 10:08:07,15.08849982,0.0001418,53.2147,171.6301,80.2,279.9152,2.2421e-05,6.9e-07,0.0,0 STARLINK-4588,1 53641U 22104BF  24009.42231268  .00000069  00000-0  22421-4 0  9991,2 53641  53.2147 171.6301 0001418  80.2000 279.9152 15.08849982 75906,6917.85,95.437,540.696,538.734,0.0
53641.0,STARLINK-4588,PAYLOAD,2024-01-09 14:54:17,15.08849038,0.0001392,53.2147,170.7373,85.6577,274.4574,-1.8364e-05,-5.8e-06,0.0,0 STARLINK-4588,1 53641U 22104BF  24009.62103177 -.00000580  00000-0 -18364-4 0  9991,2 53641  53.2147 170.7373 0001392  85.6577 274.4574 15.08849038 76950,6917.853,95.437,540.681,538.755,0.0
53641.0,STARLINK-4588,PAYLOAD,2024-01-09 18:05:03,15.08850923,0.0001368,53.2161,170.1429,83.3815,276.7333,3.3368e-05,2.43e-06,0.0,0 STARLINK-4588,1 53641U 22104BF  24009.75351363  .00000243  00000-0  33368-4 0  9992,2 53641  53.2161 170.1429 0001368  83.3815 276.7333 15.08850923 76970,6917.847,95.437,540.658,538.766,0.0
53641.0,STARLINK-4588,PAYLOAD,2024-01-10 09:58:55,15.0884298,0.0001375,53.216,167.1699,79.0354,281.0793,3.3262e-05,2.42e-06,0.0,0 STARLINK-4588,1 53641U 22104BF  24010.41591536  .00000242  00000-0  33262-4 0  9997,2 53641  53.2160 167.1699 0001375  79.0354 281.0793 15.08842980 76054,6917.871,95.437,540.687,538.785,0.0
53641.0,STARLINK-4588,PAYLOAD,2024-01-10 17:55:51,15.08826953,0.0001441,53.2162,165.6827,89.1069,271.0088,0.00023994,3.531e-05,0.0,0 STARLINK-4588,1 53641U 22104BF  24010.74711825  .00003531  00000-0  23994-3 0  9992,2 53641  53.2162 165.6827 0001441  89.1069 271.0088 15.08826953 76105,6917.92,95.438,540.782,538.788,0.0
53641.0,STARLINK-4588,PAYLOAD,2024-01-11 14:35:51,15.08845344,0.0001264,53.2162,161.8163,90.2066,269.9071,6.9285e-05,8.15e-06,0.0,0 STARLINK-4588,1 53641U 22104BF  24011.60822949  .00000815  00000-0  69285-4 0  9994,2 53641  53.2162 161.8163 0001264  90.2066 269.9071 15.08845344 77259,6917.864,95.437,540.603,538.855,0.0
53641.0,STARLINK-4588,PAYLOAD,2024-01-11 19:21:59,15.0885298,0.0001317,53.216,160.9238,91.4063,268.708,0.00013144,1.805e-05,0.0,0 STARLINK-4588,1 53641U 22104BF  24011.80694243  .00001805  00000-0  13144-3 0  9992,2 53641  53.2160 160.9238 0001317  91.4063 268.7080 15.08852980 76260,6917.841,95.437,540.617,538.795,0.0
53641.0,STARLINK-4588,PAYLOAD,2024-01-12 09:40:29,15.08834349,0.0001201,53.2165,158.247,94.1621,265.9509,-1.5692e-07,-2.9e-06,0.0,0 STARLINK-4588,1 53641U 22104BF  24012.40311914 -.00000290  00000-0 -15692-6 0  9992,2 53641  53.2165 158.2470 0001201  94.1621 265.9509 15.08834349 76359,6917.898,95.438,540.594,538.932,0.0
53641.0,STARLINK-4588,PAYLOAD,2024-01-12 14:26:38,15.08836192,0.0001338,53.216,157.3553,97.7554,262.359,2.9012e-05,1.74e-06,0.0,0 STARLINK-4588,1 53641U 22104BF  24012.60183776  .00000174  00000-0  29012-4 0  9995,2 53641  53.2160 157.3553 0001338  97.7554 262.3590 15.08836192 77407,6917.892,95.438,540.683,538.831,0.0
53641.0,STARLINK-4588,PAYLOAD,2024-01-12 16:02:01,15.08836878,0.0001272,53.2162,157.058,95.0724,265.0414,3.5815e-05,2.82e-06,0.0,0 STARLINK-4588,1 53641U 22104BF  24012.66807759  .00000282  00000-0  35815-4 0  9993,2 53641  53.2162 157.0580 0001272  95.0724 265.0414 15.08836878 77410,6917.89,95.438,540.635,538.875,0.0
53641.0,STARLINK-4588,PAYLOAD,2024-01-13 14:17:25,15.08845823,0.0001425,53.216,152.897,76.4105,283.7046,0.00010303,1.352e-05,0.0,0 STARLINK-4588,1 53641U 22104BF  24013.59543542  .00001352  00000-0  10303-3 0  9996,2 53641  53.2160 152.8970 0001425  76.4105 283.7046 15.08845823 77553,6917.863,95.437,540.713,538.742,0.0
53641.0,STARLINK-4588,PAYLOAD,2024-01-13 15:52:48,15.0884777,0.0001461,53.2163,152.5997,76.7055,283.41,0.00013859,1.919e-05,0.0,0 STARLINK-4588,1 53641U 22104BF  24013.66167452  .00001919  00000-0  13859-3 0  9994,2 53641  53.2163 152.5997 0001461  76.7055 283.4100 15.08847770 76548,6917.857,95.437,540.732,538.711,0.0
53641.0,STARLINK-4588,PAYLOAD,2024-01-14 12:32:49,15.08839596,0.0001521,53.217,148.7358,88.2432,271.8734,0.00018466,2.652e-05,0.0,0 STARLINK-4588,1 53641U 22104BF  24014.52279991  .00002652  00000-0  18466-3 0  9996,2 53641  53.2170 148.7358 0001521  88.2432 271.8734 15.08839596 76673,6917.882,95.438,540.799,538.694,0.0
53641.0,STARLINK-4588,PAYLOAD,2024-01-14 14:08:13,15.08841205,0.0001528,53.2168,148.4384,84.463,275.6536,0.000204,2.96e-05,0.0,0 STARLINK-4588,1 53641U 22104BF  24014.58903951  .00002960  00000-0  20400-3 0  9995,2 53641  53.2168 148.4384 0001528  84.4630 275.6536 15.08841205 77708,6917.877,95.437,540.799,538.685,0.0
53641.0,STARLINK-4588,PAYLOAD,2024-01-14 15:43:36,15.08843177,0.0001549,53.217,148.1412,86.8822,273.2347,0.00022692,3.326e-05,0.0,0 STARLINK-4588,1 53641U 22104BF  24014.65527853  .00003326  00000-0  22692-3 0  9998,2 53641  53.2170 148.1412 0001549  86.8822 273.2347 15.08843177 77717,6917.871,95.437,540.807,538.664,0.0
53641.0,STARLINK-4588,PAYLOAD,2024-01-15 13:58:59,15.08844041,0.0001591,53.2171,143.9773,79.4121,280.705,6.7274e-05,7.83e-06,0.0,0 STARLINK-4588,1 53641U 22104BF  24015.58263771  .00000783  00000-0  67274-4 0  9997,2 53641  53.2171 143.9773 0001591  79.4121 280.7050 15.08844041 77858,6917.868,95.437,540.834,538.632,0.0
53641.0,STARLINK-4588,PAYLOAD,2024-01-15 15:34:22,15.08846441,0.0001627,53.2174,143.6793,85.8009,274.3169,9.2698e-05,1.188e-05,0.0,0 STARLINK-4588,1 53641U 22104BF  24015.64887599  .00001188  00000-0  92698-4 0  9992,2 53641  53.2174 143.6793 0001627  85.8009 274.3169 15.08846441 76840,6917.861,95.437,540.851,538.6,0.0
53641.0,STARLINK-4588,PAYLOAD,2024-01-16 12:14:24,15.08835875,0.0001714,53.2175,139.8148,100.0046,260.114,-9.6814e-06,-4.42e-06,0.0,0 STARLINK-4588,1 53641U 22104BF  24016.51000238 -.00000442  00000-0 -96814-5 0  9995,2 53641  53.2175 139.8148 0001714 100.0046 260.1140 15.08835875 76975,6917.893,95.438,540.944,538.572,0.0
53641.0,STARLINK-4588,PAYLOAD,2024-01-16 13:49:47,15.08836842,0.0001686,53.2177,139.5176,100.2346,259.8836,-4.1969e-06,-3.55e-06,0.0,0 STARLINK-4588,1 53641U 22104BF  24016.57624167 -.00000355  00000-0 -41969-5 0  9998,2 53641  53.2177 139.5176 0001686 100.2346 259.8836 15.08836842 78006,6917.89,95.438,540.921,538.589,0.0
53641.0,STARLINK-4588,PAYLOAD,2024-01-16 15:25:10,15.08840099,0.0001527,53.2168,139.2198,89.9815,270.1352,5.879e-05,6.48e-06,0.0,0 STARLINK-4588,1 53641U 22104BF  24016.64248086  .00000648  00000-0  58790-4 0  9990,2 53641  53.2168 139.2198 0001527  89.9815 270.1352 15.08840099 78014,6917.88,95.438,540.801,538.689,0.0
53641.0,STARLINK-4588,PAYLOAD,2024-01-17 13:40:34,15.08839858,0.0001638,53.2169,135.0568,106.1893,253.9279,3.8778e-05,3.29e-06,0.0,0 STARLINK-4588,1 53641U 22104BF  24017.56984347  .00000329  00000-0  38778-4 0  9999,2 53641  53.2169 135.0568 0001638 106.1893 253.9279 15.08839858 78154,6917.881,95.438,540.879,538.613,0.0
53641.0,STARLINK-4588,PAYLOAD,2024-01-17 15:15:57,15.08839439,0.0001793,53.2169,134.7589,64.7583,295.3595,5.6207e-05,6.07e-06,0.0,0 STARLINK-4588,1 53641U 22104BF  24017.63608541  .00000607  00000-0  56207-4 0  9992,2 53641  53.2169 134.7589 0001793  64.7583 295.3595 15.08839439 77144,6917.882,95.438,540.987,538.507,0.0
